{
  "type": "FeatureCollection",
  "features": [
    {
      "type": "Feature",
      "properties": {
        "norad_id": 40376,
        "name": "SMAP",
        "group": "resource",
        "lat": 23.76276382548171,
        "lon": 1.1514341086554507,
        "alt_km": 681.4825249200603,
        "timestamp": "2025-12-26T05:31:12.157096+00:00",
        "meta_object_name": "SMAP",
        "meta_object_id": "2015-003A",
        "meta_epoch": "2025-12-25T22:50:47.301504",
        "meta_mean_motion": 14.63360908,
        "meta_eccentricity": 0.00012334,
        "meta_inclination": 98.1291,
        "meta_ra_of_asc_node": 4.4854,
        "meta_arg_of_pericenter": 92.6642,
        "meta_mean_anomaly": 267.4702,
        "meta_ephemeris_type": 0,
        "meta_classification_type": "U",
        "meta_norad_cat_id": 40376,
        "meta_element_set_no": 999,
        "meta_rev_at_epoch": 58228,
        "meta_bstar": 0.00011419226,
        "meta_mean_motion_dot": 5.43e-06,
        "meta_mean_motion_ddot": 0,
        "tle_line1": "1 40376U 15003A   25359.95193636  .00000543  00000+0  11419-3 0  9995",
        "tle_line2": "2 40376  98.1291   4.4854 0001233  92.6642 267.4702 14.63360908582288"
      },
      "geometry": {
        "type": "Point",
        "coordinates": [
          1.1514341086554507,
          23.76276382548171
        ]
      }
    },
    {
      "type": "Feature",
      "properties": {
        "norad_id": 40536,
        "name": "KOMPSAT-3A",
        "group": "resource",
        "lat": 34.77364661453014,
        "lon": -30.049800180425965,
        "alt_km": 429.0159098785507,
        "timestamp": "2025-12-26T05:31:12.157107+00:00",
        "meta_object_name": "KOMPSAT-3A",
        "meta_object_id": "2015-014A",
        "meta_epoch": "2025-12-25T23:08:54.769056",
        "meta_mean_motion": 15.44431306,
        "meta_eccentricity": 0.00056274,
        "meta_inclination": 97.6808,
        "meta_ra_of_asc_node": 335.0467,
        "meta_arg_of_pericenter": 98.1869,
        "meta_mean_anomaly": 262.0017,
        "meta_ephemeris_type": 0,
        "meta_classification_type": "U",
        "meta_norad_cat_id": 40536,
        "meta_element_set_no": 999,
        "meta_rev_at_epoch": 59499,
        "meta_bstar": 0.00043432327,
        "meta_mean_motion_dot": 0.00020028,
        "meta_mean_motion_ddot": 0,
        "tle_line1": "1 40536U 15014A   25359.96452279  .00020028  00000+0  43432-3 0  9997",
        "tle_line2": "2 40536  97.6808 335.0467 0005627  98.1869 262.0017 15.44431306594992"
      },
      "geometry": {
        "type": "Point",
        "coordinates": [
          -30.049800180425965,
          34.77364661453014
        ]
      }
    },
    {
      "type": "Feature",
      "properties": {
        "norad_id": 40697,
        "name": "SENTINEL-2A",
        "group": "resource",
        "lat": 63.8733015728303,
        "lon": -89.5149782327096,
        "alt_km": 782.0998300812753,
        "timestamp": "2025-12-26T05:31:12.157117+00:00",
        "meta_object_name": "SENTINEL-2A",
        "meta_object_id": "2015-028A",
        "meta_epoch": "2025-12-25T22:16:20.967744",
        "meta_mean_motion": 14.30809908,
        "meta_eccentricity": 0.0001051,
        "meta_inclination": 98.5726,
        "meta_ra_of_asc_node": 72.2758,
        "meta_arg_of_pericenter": 88.2551,
        "meta_mean_anomaly": 271.8752,
        "meta_ephemeris_type": 0,
        "meta_classification_type": "U",
        "meta_norad_cat_id": 40697,
        "meta_element_set_no": 999,
        "meta_rev_at_epoch": 54895,
        "meta_bstar": -5.232818e-06,
        "meta_mean_motion_dot": -5.7e-07,
        "meta_mean_motion_ddot": 0,
        "tle_line1": "1 40697U 15028A   25359.92802046 -.00000057  00000+0 -52328-5 0  9995",
        "tle_line2": "2 40697  98.5726  72.2758 0001051  88.2551 271.8752 14.30809908548957"
      },
      "geometry": {
        "type": "Point",
        "coordinates": [
          -89.5149782327096,
          63.8733015728303
        ]
      }
    },
    {
      "type": "Feature",
      "properties": {
        "norad_id": 40701,
        "name": "GAOFEN-8",
        "group": "resource",
        "lat": -4.098178339001211,
        "lon": 179.58738586986874,
        "alt_km": 453.39980651211135,
        "timestamp": "2025-12-26T05:31:12.157127+00:00",
        "meta_object_name": "GAOFEN-8",
        "meta_object_id": "2015-030A",
        "meta_epoch": "2025-12-25T23:17:46.487616",
        "meta_mean_motion": 15.39026705,
        "meta_eccentricity": 0.00114721,
        "meta_inclination": 97.6903,
        "meta_ra_of_asc_node": 178.7606,
        "meta_arg_of_pericenter": 92.8832,
        "meta_mean_anomaly": 267.3726,
        "meta_ephemeris_type": 0,
        "meta_classification_type": "U",
        "meta_norad_cat_id": 40701,
        "meta_element_set_no": 999,
        "meta_rev_at_epoch": 58474,
        "meta_bstar": 0.00030288987,
        "meta_mean_motion_dot": 0.00011647,
        "meta_mean_motion_ddot": 0,
        "tle_line1": "1 40701U 15030A   25359.97067694  .00011647  00000+0  30289-3 0  9996",
        "tle_line2": "2 40701  97.6903 178.7606 0011472  92.8832 267.3726 15.39026705584749"
      },
      "geometry": {
        "type": "Point",
        "coordinates": [
          179.58738586986874,
          -4.098178339001211
        ]
      }
    },
    {
      "type": "Feature",
      "properties": {
        "norad_id": 40718,
        "name": "CARBONITE 1 (CBNT-1)",
        "group": "resource",
        "lat": 82.13167674293031,
        "lon": 76.9358738966282,
        "alt_km": 605.4964398220391,
        "timestamp": "2025-12-26T05:31:12.157138+00:00",
        "meta_object_name": "CARBONITE 1 (CBNT-1)",
        "meta_object_id": "2015-032D",
        "meta_epoch": "2025-12-25T22:37:44.839776",
        "meta_mean_motion": 14.82810422,
        "meta_eccentricity": 0.00154027,
        "meta_inclination": 97.6406,
        "meta_ra_of_asc_node": 180.4066,
        "meta_arg_of_pericenter": 138.7861,
        "meta_mean_anomaly": 221.452,
        "meta_ephemeris_type": 0,
        "meta_classification_type": "U",
        "meta_norad_cat_id": 40718,
        "meta_element_set_no": 999,
        "meta_rev_at_epoch": 56366,
        "meta_bstar": 0.00067441611,
        "meta_mean_motion_dot": 5.419e-05,
        "meta_mean_motion_ddot": 0,
        "tle_line1": "1 40718U 15032D   25359.94288009  .00005419  00000+0  67442-3 0  9999",
        "tle_line2": "2 40718  97.6406 180.4066 0015402 138.7861 221.4520 14.82810422563669"
      },
      "geometry": {
        "type": "Point",
        "coordinates": [
          76.9358738966282,
          82.13167674293031
        ]
      }
    },
    {
      "type": "Feature",
      "properties": {
        "norad_id": 40878,
        "name": "YAOGAN-27",
        "group": "resource",
        "lat": -12.903110194701314,
        "lon": -8.419475933492262,
        "alt_km": 1204.428190560735,
        "timestamp": "2025-12-26T05:31:12.157148+00:00",
        "meta_object_name": "YAOGAN-27",
        "meta_object_id": "2015-040A",
        "meta_epoch": "2025-12-26T00:06:46.704672",
        "meta_mean_motion": 13.16061396,
        "meta_eccentricity": 0.00075893,
        "meta_inclination": 100.1024,
        "meta_ra_of_asc_node": 349.0248,
        "meta_arg_of_pericenter": 253.7313,
        "meta_mean_anomaly": 106.2967,
        "meta_ephemeris_type": 0,
        "meta_classification_type": "U",
        "meta_norad_cat_id": 40878,
        "meta_element_set_no": 999,
        "meta_rev_at_epoch": 49488,
        "meta_bstar": -0.0003004632,
        "meta_mean_motion_dot": -1.56e-06,
        "meta_mean_motion_ddot": 0,
        "tle_line1": "1 40878U 15040A   25360.00470723 -.00000156  00000+0 -30046-3 0  9995",
        "tle_line2": "2 40878 100.1024 349.0248 0007589 253.7313 106.2967 13.16061396494880"
      },
      "geometry": {
        "type": "Point",
        "coordinates": [
          -8.419475933492262,
          -12.903110194701314
        ]
      }
    },
    {
      "type": "Feature",
      "properties": {
        "norad_id": 40894,
        "name": "GAOFEN-9 01",
        "group": "resource",
        "lat": -3.569801909435907,
        "lon": 39.08255182973552,
        "alt_km": 606.0561978312317,
        "timestamp": "2025-12-26T05:31:12.157159+00:00",
        "meta_object_name": "GAOFEN-9 01",
        "meta_object_id": "2015-047A",
        "meta_epoch": "2025-12-25T23:03:23.235840",
        "meta_mean_motion": 14.82453662,
        "meta_eccentricity": 0.00273109,
        "meta_inclination": 97.6526,
        "meta_ra_of_asc_node": 38.3443,
        "meta_arg_of_pericenter": 351.4414,
        "meta_mean_anomaly": 8.6331,
        "meta_ephemeris_type": 0,
        "meta_classification_type": "U",
        "meta_norad_cat_id": 40894,
        "meta_element_set_no": 999,
        "meta_rev_at_epoch": 55452,
        "meta_bstar": 0.00014621395,
        "meta_mean_motion_dot": 1.129e-05,
        "meta_mean_motion_ddot": 0,
        "tle_line1": "1 40894U 15047A   25359.96068560  .00001129  00000+0  14621-3 0  9995",
        "tle_line2": "2 40894  97.6526  38.3443 0027310 351.4414   8.6331 14.82453662554525"
      },
      "geometry": {
        "type": "Point",
        "coordinates": [
          39.08255182973552,
          -3.569801909435907
        ]
      }
    }
  ]
}